ONEWEB-0645             
1 55809U 23029P   24149.33729408  .00000131  00000+0  29535-3 0  9990
2 55809  87.9147  94.2012 0002410  94.7751 265.3657 13.19723246 60001
ONEWEB-0646             
1 55810U 23029Q   24149.89802070 -.00000027  00000+0 -98982-4 0  9999
2 55810  87.9148  94.0893 0002368  81.0833 279.0568 13.19726107 60755
ONEWEB-0648             
1 55811U 23029R   24149.80891411  .00000082  00000+0  18563-3 0  9993
2 55811  87.8970  78.7989 0002941  94.4438 265.7028 13.14503101 61654
ONEWEB-0649             
1 55812U 23029S   24149.86090957  .00000051  00000+0  94030-4 0  9996
2 55812  87.9146  94.0930 0002555  90.6320 269.5106 13.19727492 60785
ONEWEB-0650             
1 55813U 23029T   24149.55290096  .00000109  00000+0  24067-3 0  9995
2 55813  87.9146  94.1552 0002447  85.2828 274.8584 13.19723634 60020
ONEWEB-0652             
1 55814U 23029U   24149.86601777  .00000309  00000+0  79767-3 0  9991
2 55814  87.8969  78.7997 0001866  78.6272 281.5068 13.14502509 61616
ONEWEB-0653             
1 55815U 23029V   24149.85013247  .00000062  00000+0  13204-3 0  9990
2 55815  87.8969  78.7820 0001778  88.2918 271.8415 13.14500069 61648
ONEWEB-0654             
1 55816U 23029W   24149.54091751  .00000011  00000+0 -38186-5 0  9996
2 55816  87.8967  78.8543 0001522  75.9169 284.2130 13.14502545 60932
